A/2019 G2,e,159.2193,208.1692,82.6268,414.7829,0.0001167,0.99446377,0.0000,12/07.8889/2019,2000,g 16.5,2.0
# From MPEC 2022-VC5
A/2019 G3,e,156.8039,49.9127,161.8669,17.18166,0.0138391,0.83451009,25.4002,12/14.0/2023,2000,g 17.1,2.0
# From MPC114607
P/2019 GG21 (PANSTARRS),e,6.0867,340.5605,208.5797,7.467780,0.0482966,0.47178564,81.0987,12/14.0/2023,2000,g 12.0,4.0
# From MPEC 2022-M21
C/2019 H1 (NEOWISE),e,104.4093,269.2913,19.3144,242.3666,0.0002612,0.99239418,0.0000,04/27.8391/2019,2000,g 15.5,4.0
# From MPEC 2023-A50
C/2019 J1 (Lemmon),e,24.5335,98.1913,167.6984,67.75872,0.0017671,0.96331542,3.0251,12/14.0/2023,2000,g 12.0,4.0
# From MPEC 2021-R75
C/2019 J2 (Palomar),e,5.2603,25.5329,98.6815,161.1545,0.0004818,0.98931823,0.0000,07/20.3937/2019,2000,g 13.0,4.0
# From MPC117071
C/2019 J3 (ATLAS),h,08/02.4873/2019,131.3261,270.6290,16.5814,1.000488,2.368034,2000,13.5,4.0
# From MPEC 2022-M21
C/2019 JU6 (ATLAS),h,06/02.3327/2019,148.3298,21.7622,94.9539,1.000083,2.040850,2000,14.5,4.0
# From MPEC 2022-O08
C/2019 K1 (ATLAS),e,87.0296,73.3203,265.7366,6146,0.0000020,0.99967205,0.0000,02/12.3272/2020,2000,g 10.0,4.0
# From MPC119997
C/2019 K4 (Ye),e,105.2968,180.1762,139.9352,1461,0.0000176,0.99844528,0.0000,06/15.3993/2019,2000,g 12.5,4.0
# From MPEC 2021-P47
C/2019 K5 (Young),e,15.3138,177.1894,175.1371,169.5931,0.0004463,0.98793473,0.0000,06/22.7360/2019,2000,g 13.0,4.0
# From MPEC 2021-P47
C/2019 K6 (PANSTARRS),e,132.3795,43.0023,187.5416,1303,0.0000210,0.99698948,0.0000,05/19.7116/2020,2000,g 11.5,4.0
# From MPEC 2023-R20
C/2019 K7 (Smith),h,06/17.6560/2020,103.5178,307.9885,27.4088,1.000987,4.478182,2000,6.0,4.0
# From MPEC 2021-R75
C/2019 K8 (ATLAS),e,93.1116,291.0234,85.3616,2257,0.0000092,0.99858451,0.0000,07/21.4504/2019,2000,g 11.5,4.0
# From MPEC 2023-A50
C/2019 L1 (PANSTARRS),e,9.9760,254.4290,50.0611,9.836079,0.0319500,0.70496697,50.7091,12/14.0/2023,2000,g 13.5,4.0
# From MPC115886
C/2019 L2 (NEOWISE),e,152.2037,12.5530,18.8611,25.08909,0.0078429,0.93518794,13.4632,12/14.0/2023,2000,g 16.0,4.0
# From MPEC 2023-XP6
P/2019 LD2 (ATLAS),e,11.6107,179.5069,118.8017,5.205912,0.0829772,0.12681176,115.2941,12/14.0/2023,2000,g  8.5,4.0
# From MPEC 2023-XP6
C/2019 L3 (ATLAS),h,01/09.7686/2022,48.3455,290.7585,171.6458,1.002394,3.554750,2000,4.5,4.0
# From MPEC 2020-K19
P/2019 LM4 (Palomar),e,36.4160,72.8384,68.2793,5.705228,0.0723260,0.58518393,118.6094,12/14.0/2023,2000,g  9.5,4.0
# From MPC118095
C/2019 LB7 (Kleyna),e,164.2900,3.9056,336.6385,34.79710,0.0048016,0.92831748,8.2762,12/14.0/2023,2000,g 17.0,4.0
# From MPEC 2022-O08
P/2019 M2 (ATLAS),e,12.2691,307.5895,332.5567,3.029547,0.1869121,0.64728809,305.9496,12/14.0/2023,2000,g 21.2,4.0
# From MPC118095
C/2019 M3 (ATLAS),e,99.5493,154.9582,87.9120,5131,0.0000027,0.99952755,0.0000,12/31.5263/2018,2000,g 12.2,4.0
# From MPEC 2023-JA2
C/2019 M4 (TESS),h,09/11.9208/2019,65.6785,52.6493,260.3728,1.002900,9.189497,2000,5.0,4.0
# From MPEC 2023-C45
C/2019 N1 (ATLAS),e,82.4406,13.5655,193.3898,1267,0.0000219,0.99865415,0.0000,12/01.0316/2020,2000,g  7.5,4.0
# From MPEC 2023-CD8
A/2019 N2,e,89.3610,276.1653,347.1728,1499,0.0000170,0.99870179,0.0000,08/22.6907/2019,2000,g 12.5,2.0
# From MPEC 2022-A21
C/2019 NJ3 (Lemmon),h,10/22.7646/2020,99.3998,142.4800,246.8958,1.001959,4.363529,2000,9.0,4.0
# From MPEC 2023-SQ0
A/2019 O2,e,93.3123,48.2577,129.6182,58.21591,0.0022189,0.83367781,0.5574,12/14.0/2023,2000,g  9.5,2.0
# From MPEC 2023-XP6
C/2019 O3 (Palomar),h,03/09.6388/2021,89.8139,300.4405,60.1333,1.004334,8.821366,2000,3.5,4.0
# From MPEC 2021-P47
A/2019 O4,e,15.0918,354.9280,61.9241,33.31591,0.0051254,0.89042009,7.1866,12/14.0/2023,2000,g 15.5,2.0
# From MPEC 2023-A50
C/2019 Q1 (Lemmon),h,07/21.1580/2020,155.7315,42.4561,56.2290,1.001378,5.004626,2000,8.5,4.0
# From MPC117072
A/2019 Q2,e,159.0205,188.0295,176.4367,58.23825,0.0022176,0.97829974,0.0000,07/22.3699/2019,2000,g 18.0,2.0
# From MPC117072
P/2019 S2 (PANSTARRS),e,10.4652,93.1875,217.1027,4.744478,0.0953721,0.20523474,167.5966,12/14.0/2023,2000,g 13.5,4.0
# From MPEC 2022-CN4
P/2019 S3 (PANSTARRS),e,8.6943,150.1704,213.0553,3.415234,0.1561613,0.47107692,245.0749,12/14.0/2023,2000,g 18.3,4.0
# From MPEC 2021-S45
C/2019 S4 (Lemmon),e,92.1010,63.1577,71.3711,238.0905,0.0002683,0.98554285,0.0000,04/08.3103/2020,2000,g 11.0,4.0
# From MPEC 2023-N01
A/2019 T1,e,120.8679,6.9445,91.0593,38.83006,0.0040734,0.88977490,4.3301,12/14.0/2023,2000,g 13.0,2.0
# From MPEC 2023-R20
C/2019 T2 (Lemmon),e,111.4515,155.6543,239.4287,5053,0.0000027,0.99947645,0.0000,04/22.6374/2021,2000,g  9.0,4.0
# From MPEC 2023-UR6
C/2019 T3 (ATLAS),e,121.8395,139.5325,112.4573,3408,0.0000050,0.99825338,0.0000,03/04.3019/2021,2000,g  6.8,4.0
# From MPEC 2023-XP6
C/2019 T4 (ATLAS),e,53.6308,199.9370,351.1434,910.6633,0.0000359,0.99534303,0.0000,06/08.7892/2022,2000,g  5.0,4.0
# From MPEC 2021-P47
P/2019 T5 (ATLAS),e,33.4898,247.6151,189.5770,7.999865,0.0435592,0.80974774,69.4604,12/14.0/2023,2000,g 15.0,4.0
# From MPEC 2021-P47
P/2019 T6 (PANSTARRS),e,18.6979,71.2519,328.9944,5.439214,0.0776962,0.62306827,116.2400,12/14.0/2023,2000,g 15.5,4.0
# From MPC118096
P/2019 U4 (PANSTARRS),e,11.6988,200.0204,181.0341,3.519862,0.1492505,0.47601290,230.7188,12/14.0/2023,2000,g 19.0,4.0
# From MPEC 2023-XP6
C/2019 U5 (PANSTARRS),h,03/29.7494/2023,113.5165,2.6349,181.4774,1.001138,3.623993,2000,4.5,4.0
# From MPEC 2022-H04
C/2019 U6 (Lemmon),e,60.9673,235.7859,329.5234,325.0653,0.0001682,0.99719470,0.0000,06/18.3083/2020,2000,g 10.0,4.0
# From MPEC 2022-N37
C/2019 V1 (Borisov),e,61.9261,83.1532,51.1689,1702,0.0000140,0.99818211,0.0000,07/16.6617/2020,2000,g 11.0,4.0
# From MPEC 2022-L66
P/2019 V2 (Groeller),e,11.8078,189.1799,335.6763,7.496699,0.0480174,0.33122928,55.3707,12/14.0/2023,2000,g 10.0,4.0
# From MPEC 2023-A50
P/2019 W1 (PANSTARRS),e,23.4755,35.3766,18.7697,4.548861,0.1015898,0.26727091,170.5659,12/14.0/2023,2000,g 12.9,4.0
# From MPEC 2021-P47
P/2019 X1 (Pruyne),e,10.2505,43.6794,36.8281,6.175246,0.0642277,0.30388282,103.0938,12/14.0/2023,2000,g 10.4,4.0
# From MPEC 2020-C98
P/2019 X2 (Pan-STARRS),e,15.8950,250.8393,213.4491,3.636224,0.1421438,0.49998580,208.2589,12/14.0/2023,2000,g 18.0,4.0
# From MPC119999
C/2019 Y1 (ATLAS),e,73.3816,31.5428,57.9136,87.02171,0.0012141,0.99048144,0.0000,03/16.3098/2020,2000,g 13.7,4.0
# From MPEC 2020-C98
P/2019 Y3 (Catalina),e,24.6034,139.3070,2.5833,3.014024,0.1883580,0.69114522,276.1415,12/14.0/2023,2000,g 18.5,4.0
# From MPEC 2022-YN2
C/2019 Y4 (ATLAS),e,45.1347,120.7008,177.4480,349.7761,0.0001507,0.99926823,0.0000,05/30.6807/2020,2000,g 11.8,6.0
# From MPEC 2020-L06
C/2019 Y4-A (ATLAS),h,05/30.7117/2020,45.5755,121.0638,177.2815,1.001415,0.254110,2000,11.6,6.0
# From MPEC 2023-J29
C/2019 Y4-B (ATLAS),h,05/30.6870/2020,45.2649,120.8074,177.3920,1.000013,0.255423,2000,12.1,6.0
# From MPEC 2020-L06
C/2019 Y4-C (ATLAS),h,05/30.6646/2020,45.3581,120.7906,177.3148,1.002141,0.255182,2000,12.7,6.0
# From MPEC 2020-L06
C/2019 Y4-D (ATLAS),e,45.4050,121.1614,177.4535,68.28742,0.0017466,0.99627315,0.0000,05/30.7881/2020,2000,g 12.5,6.0
# From MPEC 2023-A50
C/2019 Y5 (PANSTARRS),e,82.7617,51.7507,303.5901,730.7642,0.0000499,0.99326263,0.0000,08/17.6428/2019,2000,g 11.0,4.0
# From MPEC 2023-A50
A/2020 A1,e,149.0347,119.1646,302.4587,25.57186,0.0076219,0.93482679,11.2281,12/14.0/2023,2000,g 18.0,2.0
# From MPEC 2022-YN2
C/2020 A2 (Iwamoto),e,120.5873,286.2637,68.0552,1262,0.0000220,0.99922858,0.0000,01/08.3561/2020,2000,g 13.5,4.0
# From MPEC 2023-A50
C/2020 A3 (ATLAS),h,06/28.7287/2019,146.6539,120.8050,268.3295,1.000437,5.757189,2000,8.0,4.0
# From MPEC 2022-P91
P/2020 A4 (PANSTARRS-Lemmon),e,24.9916,312.3599,144.7791,8.195330,0.0420102,0.65423876,62.2429,12/14.0/2023,2000,g 15.0,4.0
# From MPEC 2020-N08
A/2020 B1,e,18.5216,309.9268,154.7328,51.54975,0.0026630,0.96626157,3.8568,12/14.0/2023,2000,g 21.0,2.0
# From MPEC 2020-HN5
C/2020 B2 (Lemmon),e,55.7529,354.2828,143.5977,67.66713,0.0017707,0.95921898,2.5096,12/14.0/2023,2000,g 10.0,4.0
# From MPEC 2022-N37
C/2020 B3 (Rankin),e,20.7088,185.8337,324.8859,938.0049,0.0000343,0.99644655,0.0000,10/19.6461/2019,2000,g 13.0,4.0
# From MPEC 2023-KD6
P/2020 B4 (Sheppard),e,11.6082,185.9766,342.0056,7.967268,0.0438268,0.19202258,33.1165,12/14.0/2023,2000,g 10.5,4.0
# From MPEC 2023-XP6
C/2020 F2 (ATLAS),h,07/14.2544/2022,163.5893,250.2991,48.3046,1.004979,8.815726,2000,4.5,4.0
# From MPEC 2021-O56
C/2020 F3 (NEOWISE),e,29.1037,61.0842,37.3018,363.4201,0.0001423,0.99919157,0.0000,07/04.0666/2020,2000,g  7.5,5.2
# From MPEC 2023-XP6
C/2020 F5 (MASTER),e,52.2067,350.5010,310.6802,172.2185,0.0004361,0.97488115,0.0000,03/17.1900/2021,2000,g  6.5,3.2
# From MPEC 2020-L06
C/2020 F6 (PANSTARRS),e,174.5831,207.9002,344.4929,385.6856,0.0001301,0.99091884,0.0000,04/11.5521/2020,2000,g 14.5,2.8
# From MPEC 2023-J95
C/2020 F7 (Lemmon),e,93.9552,321.8578,227.9477,560.3891,0.0000743,0.99048451,0.0000,11/13.6367/2021,2000,g  7.0,4.0
# From MPEC 2023-J29
C/2020 F8 (SWAN),h,05/27.0181/2020,110.5942,259.8466,68.0754,1.000159,0.429835,2000,10.0,4.0
# From MPEC 2020-L06
P/2020 G1 (Pimentel),e,18.5101,240.1079,207.6162,3.607916,0.1438201,0.86058868,196.4597,12/14.0/2023,2000,g 17.0,4.0
# From MPEC 2022-YB4
C/2020 H2 (Pruyne),e,124.8603,277.6693,26.6417,186.8365,0.0003859,0.99555658,0.0000,04/27.7750/2020,2000,g 14.0,3.2
# From MPEC 2020-HM1
C/2020 H3 (Wierzchos),p,06/05.7162/2020,62.5292,30.4456,2.300288,270.6227,2000,13.5,4.0
# From MPEC 2020-L06
C/2020 H4 (Leonard),e,84.4988,307.6163,117.5141,47.82293,0.0029802,0.98066736,0.0000,08/29.6190/2020,2000,g 15.0,3.2
# From MPEC 2023-VM5
C/2020 H5 (Robinson),e,70.2556,210.6274,326.3098,4273,0.0000035,0.99781418,0.0000,12/10.3584/2020,2000,g  5.0,4.0
# From MPEC 2023-SQ0
C/2020 H6 (ATLAS),e,79.9779,213.7203,20.2714,4219,0.0000036,0.99888586,0.0000,09/30.3865/2021,2000,g  8.0,3.2
# From MPEC 2020-KB7
C/2020 H7 (Lemmon),e,135.9235,323.5194,82.6780,1405,0.0000187,0.99685380,0.0000,06/02.9510/2020,2000,g 11.0,4.0
# From MPEC 2021-N06
